[{"OBJECT_NAME":"STARLINK-4506","OBJECT_ID":"2022-101AD","EPOCH":"2026-03-09T09:28:50.249856","MEAN_MOTION":15.08845579,"ECCENTRICITY":0.00014825,"INCLINATION":53.2176,"RA_OF_ASC_NODE":65.4516,"ARG_OF_PERICENTER":94.2524,"MEAN_ANOMALY":265.8638,"EPHEMERIS_TYPE":0,"CLASSIFICATION_TYPE":"U","NORAD_CAT_ID":53554,"ELEMENT_SET_NO":999,"REV_AT_EPOCH":19626,"BSTAR":-5.6288253e-5,"MEAN_MOTION_DOT":-1.184e-5,"MEAN_MOTION_DDOT":0},{"OBJECT_NAME":"FENGYUN 1C DEB","OBJECT_ID":"1999-025CMN","EPOCH":"2026-03-08T02:55:26.099904","MEAN_MOTION":14.79998797,"ECCENTRICITY":0.01585695,"INCLINATION":99.2491,"RA_OF_ASC_NODE":174.5116,"ARG_OF_PERICENTER":31.4432,"MEAN_ANOMALY":329.6136,"EPHEMERIS_TYPE":0,"CLASSIFICATION_TYPE":"U","NORAD_CAT_ID":31937,"ELEMENT_SET_NO":999,"REV_AT_EPOCH":67331,"BSTAR":0.0010230441,"MEAN_MOTION_DOT":9.525e-5,"MEAN_MOTION_DDOT":0}]
